FLOCK 2P-3              
1 41618U 16040V   20086.83650846  .00001203  00000-0  49321-4 0  9996
2 41618  97.3395 152.7273 0011637 111.9233 248.3244 15.26131935209119
BEESAT-4                
1 41619U 16040W   20086.69035631  .00001270  00000-0  55584-4 0  9992
2 41619  97.3292 148.1514 0012829 109.2874 250.9753 15.23791092196794
MUOS-5                  
1 41622U 16041A   20086.55967069 -.00000160  00000-0  00000+0 0  9997
2 41622   7.4259 308.2131 0198103 215.4444 117.2550  1.00273559 14264
SJ 16-02                
1 41634U 16043A   20086.92005283  .00000054  00000-0  93470-5 0  9994
2 41634  75.0009 226.9872 0007239 138.8971 221.2762 14.85647696202984
TIANTONG-1 1            
1 41725U 16048A   20086.77833705 -.00000322  00000-0  00000-0 0  9992
2 41725   3.1023 332.8032 0005910  50.7293 182.6829  1.00271385 13469
GAOFEN 3                
1 41727U 16049A   20086.91260676 -.00000120  00000-0 -23328-4 0  9991
2 41727  98.4141  95.6731 0000928 107.1128 253.0132 14.42215410190987
JCSAT-16                
1 41729U 16050A   20086.77229521 -.00000359  00000-0  00000+0 0  9993
2 41729   0.0456  93.1456 0003447 210.9316 282.6049  1.00269821 13260
QSS (MOZI)              
1 41731U 16051A   20086.90082529  .00000348  00000-0  16739-4 0  9995
2 41731  97.3586   1.2556 0011845 303.1357 121.1550 15.25093540200984
USA 270                 
1 41744U 16052A   20084.01585985  .00000106  00000-0  00000+0 0  9995
2 41744   0.3546  97.2357 0000823  47.7566  59.1219  1.00364042  5317
INTELSAT 36 (IS-36)     
1 41747U 16053A   20086.62323547 -.00000028  00000-0  00000-0 0  9997
2 41747   0.0116 190.8132 0000762 151.8857 134.7048  1.00270802 13176
INTELSAT 33E (IS-33E)   
1 41748U 16053B   20086.71021409  .00000045  00000-0  00000-0 0  9998
2 41748   0.0349   2.7595 0001525  19.8286 117.6666  1.00273104 13451
INSAT-3DR               
1 41752U 16054A   20086.69910277 -.00000080  00000-0  00000+0 0  9990
2 41752   0.0796  89.4241 0011652 193.3887 227.4236  1.00272558 13005
PERUSAT 1               
1 41770U 16058A   20086.91806153  .00000001  00000-0  99609-5 0  9997
2 41770  98.1817 161.3590 0001395  88.1626 271.9725 14.58558049187726
SKYSAT-C4               
1 41771U 16058B   20086.81265876  .00000920  00000-0  30699-4 0  9991
2 41771  97.2413 158.4640 0001579 100.8987 259.2434 15.33549616195974
SKYSAT-C5               
1 41772U 16058C   20086.87918222  .00000465  00000-0  22230-4 0  9994
2 41772  97.3652 158.1105 0001818 102.1702 347.2121 15.23747853195962
SKYSAT-C2               
1 41773U 16058D   20086.81809590  .00001174  00000-0  33858-4 0  9992
2 41773  97.2168 158.7316 0002091 107.2719 252.8755 15.37684972195996
SKYSAT-C3               
1 41774U 16058E   20086.80383217  .00000899  00000-0  29831-4 0  9994
2 41774  97.2415 158.7364 0001091 106.3452 253.7911 15.33799607195989
PISAT                   
1 41784U 16059B   20086.83916363  .00000091  00000-0  26644-4 0  9996
2 41784  98.0288 145.5354 0031313 211.6064 148.3258 14.63497724186822
ALSAT 1B                
1 41785U 16059C   20086.88116299  .00000001  00000-0  92535-5 0  9996
2 41785  98.0238 145.0574 0030367 211.1184 148.8211 14.63355100186828
ALSAT 2B                
1 41786U 16059D   20086.85285434  .00000051  00000-0  17827-4 0  9997
2 41786  98.0684 156.6969 0001915  85.1742 274.9671 14.66568486187239
PATHFINDER 1            
1 41787U 16059E   20086.74300246  .00000028  00000-0  14447-4 0  9994
2 41787  98.0272 145.8690 0029705 210.2968 149.6506 14.63718953186846
CANX-7                  
1 41788U 16059F   20086.83439963  .00007325  00000-0  10324-2 0  9999
2 41788  98.2496 172.6675 0031721 191.6241 168.4123 14.77225833187610
SCATSAT 1               
1 41790U 16059H   20086.77972994  .00000013  00000-0  14111-4 0  9998
2 41790  98.1722 129.4822 0005739 162.0517 198.0871 14.50904626185236
GSAT-18                 
1 41793U 16060A   20086.69910277 -.00000080  00000-0  00000+0 0  9992
2 41793   0.0108 134.0860 0001898 323.4084  52.7541  1.00272598 12738
SKY MUSTER 2            
1 41794U 16060B   20086.40177656 -.00000248  00000-0  00000+0 0  9994
2 41794   0.0103 233.7473 0001463 127.3130 112.6676  1.00271248 12772
HIMAWARI-9              
1 41836U 16064A   20086.74424596 -.00000278  00000-0  00000-0 0  9994
2 41836   0.0191 149.3194 0001014 202.3277 241.6911  1.00271811 12395
SHIJIAN-17 (SJ-17)      
1 41838U 16065A   20086.88302684 -.00000364  00000-0  00000-0 0  9991
2 41838   0.0570  64.7013 0001711 343.2619 209.9400  1.00268291 12418
XPNAV-1                 
1 41841U 16066A   20086.96154006  .00000478  00000-0  23517-4 0  9995
2 41841  97.4112  93.8885 0013360 276.9570 138.3954 15.22657813187531
XIAOXIANG 1             
1 41842U 16066B   20086.79026265  .00000777  00000-0  35188-4 0  9991
2 41842  97.4070  94.9338 0012772 278.1831 256.7936 15.23813329187600
PINA 2A                 
1 41843U 16066C   20086.91466083  .00000743  00000-0  33866-4 0  9996
2 41843  97.4069  95.1334 0014663 272.4895 175.0279 15.23686886187627
PINA 2B                 
1 41844U 16066D   20086.93983844  .00000891  00000-0  38864-4 0  9995
2 41844  97.4051  96.0312 0013115 276.0551 152.8000 15.24716897187694
LISHUI 1-01             
1 41845U 16066E   20086.83934414  .00006445  00000-0  86124-3 0  9996
2 41845  98.7371 162.2116 0289911  51.6828 311.0024 14.54734637178234
CAS-2T & KS-1Q          
1 41847U 16066G   20086.68815451  .00000070  00000-0  20044-4 0  9998
2 41847  98.6655 136.3239 0366766 115.4771 248.4831 14.38050308177526
WORLDVIEW-4             
1 41848U 16067A   20086.90869341 -.00000080  00000-0  35197-6 0  9991
2 41848  97.8447 188.9719 0006494 102.1635 258.0338 15.40362798184120
RAVAN                   
1 41849U 16067B   20086.81016352 -.00000246  00000-0 -15415-4 0  9992
2 41849  97.9254 195.3055 0008604 152.7513 207.4162 14.98486363184247
CELTEE 1                
1 41850U 16067C   20086.79711118 -.00000234  00000-0 -15024-4 0  9996
2 41850  97.9201 193.2582 0009221 154.6665 205.5010 14.97145194184130
OPTICUBE 04             
1 41851U 16067D   20086.84724607  .00000653  00000-0  62194-4 0  9993
2 41851  97.9190 192.9715 0009558 155.7456 204.4217 14.96899359184129
AEROCUBE 8D             
1 41852U 16067E   20086.86206536 -.00000153  00000-0 -80222-5 0  9992
2 41852  97.9199 192.8180 0010036 157.6106 202.5555 14.96867003184103
AEROCUBE 8C             
1 41853U 16067F   20086.82485338  .00000330  00000-0  34128-4 0  9996
2 41853  97.9186 192.6924 0010617 160.9507 199.2113 14.96824514184091
PROMETHEUS 2-1          
1 41854U 16067G   20086.81143449  .00000021  00000-0  71296-5 0  9995
2 41854  97.9198 192.9571 0010698 160.8003 199.3623 14.97120231184100
PROMETHEUS 2-3          
1 41855U 16067H   20086.87926081  .00000064  00000-0  10826-4 0  9991
2 41855  97.9200 193.0543 0010893 161.0965 199.0662 14.97129918184115
YUNHAI 1                
1 41857U 16068A   20086.72974744  .00000147  00000-0  70318-4 0  9991
2 41857  98.5590  86.6690 0014904 223.6461 136.3541 14.32588457176262
GSAT0207 (GALILEO 15)   
1 41859U 16069A   20086.73371628  .00000019  00000-0  00000-0 0  9992
2 41859  54.6369 164.1384 0004704 291.3842  68.6367  1.70473852 20806
GSAT0212 (GALILEO 16)   
1 41860U 16069B   20086.00057152  .00000015  00000-0  00000-0 0  9993
2 41860  54.6338 164.1578 0003577 312.0832  47.9550  1.70473959 20886
GSAT0213 (GALILEO 17)   
1 41861U 16069C   20085.19329322  .00000011  00000-0  00000+0 0  9999
2 41861  54.6360 164.1838 0003961 269.5130  90.5061  1.70474037 20873
GSAT0214 (GALILEO 18)   
1 41862U 16069D   20086.51345493  .00000018  00000-0  00000-0 0  9992
2 41862  54.6344 164.1430 0003213 274.7785  85.2553  1.70474011 20888
GOES 16                 
1 41866U 16071A   20086.57757698 -.00000252  00000-0  00000-0 0  9990
2 41866   0.0538  31.6612 0000699  27.3514 258.2416  1.00273324 12315
SHENZHOU-11 MODULE      
1 41868U 16061G   20086.80973146  .00028718  85295-5  93489-4 0  9992
2 41868  42.7898 296.3730 0013667 271.9577 195.7204 15.91273103192875
TIANLIAN 1-04           
1 41869U 16072A   20086.88104828 -.00000111  00000-0  00000-0 0  9993
2 41869   0.4169 282.5092 0015932 159.2804 137.2618  1.00273195 12512
LEMUR-2-XIAOQING        
1 41871U 16062C   20086.82600296  .00001003  00000-0  51004-4 0  9993
2 41871  51.6422 294.3157 0005198 284.0636  75.9765 15.26508927185598
LEMUR-2-SOKOLSKY        
1 41872U 16062D   20086.84640691  .00001823  00000-0  82423-4 0  9998
2 41872  51.6863 299.3242 0003125  40.3076 319.8135 15.26306043185571
LEMUR-2-ANUBHAVTHAKUR   
1 41873U 16062E   20086.87740434  .00000324  00000-0  27241-4 0  9990
2 41873  51.6963 311.2634 0003452 195.1919 164.8956 15.23595429185361
LEMUR-2-WINGO           
1 41874U 16062F   20086.89089407  .00000465  00000-0  31241-4 0  9990
2 41874  51.6540 298.8724 0011400 197.1537 162.9058 15.25942274185530
GOKTURK 1A              
1 41875U 16073A   20086.77260603  .00000015  00000-0  12224-4 0  9990
2 41875  98.1632 341.9514 0001577  78.7542 281.3837 14.62747151176471
RESOURCESAT-2A          
1 41877U 16074A   20086.81669063 -.00000025  00000-0  79970-5 0  9995
2 41877  98.5993 158.1181 0000777  96.3869 263.7393 14.21678905171307
WGS F8 (USA 272)        
1 41879U 16075A   20086.82355764 -.00000207  00000-0  00000+0 0  9993
2 41879   0.0037 193.1296 0000197 298.0443 139.8192  1.00265302 12127
FENGYUN 4A              
1 41882U 16077A   20086.50535425 -.00000333  00000-0  00000+0 0  9998
2 41882   0.1573  86.6336 0005206  29.5681 354.7506  1.00271226 12180
CYGFM05                 
1 41884U 16078A   20086.75973380  .00000309  00000-0  18119-4 0  9991
2 41884  34.9557 213.6106 0015640  24.1834 335.9609 15.14577792181561
CYGFM04                 
1 41885U 16078B   20086.75795357  .00000323  00000-0  18578-4 0  9993
2 41885  34.9489 207.2641 0013900  33.5137 326.6452 15.15086980181621
